{
  "type": "FeatureCollection",
  "features": [
    {
      "type": "Feature",
      "properties": {
        "norad_id": 31017,
        "name": "FENGYUN 1C DEB",
        "group": "fengyun-1c-debris",
        "lat": 53.867956903620275,
        "lon": -31.628464550716842,
        "alt_km": 852.938942404443,
        "timestamp": "2025-12-20T14:38:02.249797+00:00",
        "meta_object_name": "FENGYUN 1C DEB",
        "meta_object_id": "1999-025BDK",
        "meta_epoch": "2025-12-17T21:54:38.423808",
        "meta_mean_motion": 14.08831106,
        "meta_eccentricity": 0.01129483,
        "meta_inclination": 98.6798,
        "meta_ra_of_asc_node": 337.852,
        "meta_arg_of_pericenter": 335.5494,
        "meta_mean_anomaly": 87.9981,
        "meta_ephemeris_type": 0,
        "meta_classification_type": "U",
        "meta_norad_cat_id": 31017,
        "meta_element_set_no": 999,
        "meta_rev_at_epoch": 96369,
        "meta_bstar": 0.00040732725,
        "meta_mean_motion_dot": 7.03e-06,
        "meta_mean_motion_ddot": 0,
        "tle_line1": "1 31017U 99025BDK 25351.91294472  .00000703  00000+0  40733-3 0  9990",
        "tle_line2": "2 31017  98.6798 337.8520 0112948 335.5494  87.9981 14.08831106963694"
      },
      "geometry": {
        "type": "Point",
        "coordinates": [
          -31.628464550716842,
          53.867956903620275
        ]
      }
    },
    {
      "type": "Feature",
      "properties": {
        "norad_id": 31018,
        "name": "FENGYUN 1C DEB",
        "group": "fengyun-1c-debris",
        "lat": 32.78540977523033,
        "lon": -92.62969948373522,
        "alt_km": 802.4017644832365,
        "timestamp": "2025-12-20T14:38:02.249807+00:00",
        "meta_object_name": "FENGYUN 1C DEB",
        "meta_object_id": "1999-025BDL",
        "meta_epoch": "2025-12-20T05:28:32.935008",
        "meta_mean_motion": 14.16968542,
        "meta_eccentricity": 0.00585472,
        "meta_inclination": 99.0247,
        "meta_ra_of_asc_node": 81.1079,
        "meta_arg_of_pericenter": 105.0678,
        "meta_mean_anomaly": 255.6984,
        "meta_ephemeris_type": 0,
        "meta_classification_type": "U",
        "meta_norad_cat_id": 31018,
        "meta_element_set_no": 999,
        "meta_rev_at_epoch": 96161,
        "meta_bstar": 0.0011138305,
        "meta_mean_motion_dot": 2.23e-05,
        "meta_mean_motion_ddot": 0,
        "tle_line1": "1 31018U 99025BDL 25354.22815897  .00002230  00000+0  11138-2 0  9991",
        "tle_line2": "2 31018  99.0247  81.1079 0058547 105.0678 255.6984 14.16968542961616"
      },
      "geometry": {
        "type": "Point",
        "coordinates": [
          -92.62969948373522,
          32.78540977523033
        ]
      }
    },
    {
      "type": "Feature",
      "properties": {
        "norad_id": 31019,
        "name": "FENGYUN 1C DEB",
        "group": "fengyun-1c-debris",
        "lat": 27.26638193297274,
        "lon": -174.66022786755732,
        "alt_km": 2121.5316637927963,
        "timestamp": "2025-12-20T14:38:02.249817+00:00",
        "meta_object_name": "FENGYUN 1C DEB",
        "meta_object_id": "1999-025BDM",
        "meta_epoch": "2025-12-14T12:29:53.523168",
        "meta_mean_motion": 11.82979343,
        "meta_eccentricity": 0.11186799,
        "meta_inclination": 98.7007,
        "meta_ra_of_asc_node": 185.8561,
        "meta_arg_of_pericenter": 280.0441,
        "meta_mean_anomaly": 96.2635,
        "meta_ephemeris_type": 0,
        "meta_classification_type": "U",
        "meta_norad_cat_id": 31019,
        "meta_element_set_no": 999,
        "meta_rev_at_epoch": 55202,
        "meta_bstar": 0.0035282557,
        "meta_mean_motion_dot": 1.297e-05,
        "meta_mean_motion_ddot": 0,
        "tle_line1": "1 31019U 99025BDM 25348.52075837  .00001297  00000+0  35283-2 0  9999",
        "tle_line2": "2 31019  98.7007 185.8561 1118679 280.0441  96.2635 11.82979343552025"
      },
      "geometry": {
        "type": "Point",
        "coordinates": [
          -174.66022786755732,
          27.26638193297274
        ]
      }
    },
    {
      "type": "Feature",
      "properties": {
        "norad_id": 31021,
        "name": "FENGYUN 1C DEB",
        "group": "fengyun-1c-debris",
        "lat": 37.37905640565313,
        "lon": -68.21307900994958,
        "alt_km": 587.1254199337163,
        "timestamp": "2025-12-20T14:38:02.249827+00:00",
        "meta_object_name": "FENGYUN 1C DEB",
        "meta_object_id": "1999-025BDP",
        "meta_epoch": "2025-12-14T13:05:53.511072",
        "meta_mean_motion": 14.75277457,
        "meta_eccentricity": 0.02681864,
        "meta_inclination": 98.3471,
        "meta_ra_of_asc_node": 99.084,
        "meta_arg_of_pericenter": 236.1155,
        "meta_mean_anomaly": 121.428,
        "meta_ephemeris_type": 0,
        "meta_classification_type": "U",
        "meta_norad_cat_id": 31021,
        "meta_element_set_no": 999,
        "meta_rev_at_epoch": 73459,
        "meta_bstar": 0.00058085842,
        "meta_mean_motion_dot": 7.026e-05,
        "meta_mean_motion_ddot": 0,
        "tle_line1": "1 31021U 99025BDP 25348.54575823  .00007026  00000+0  58086-3 0  9997",
        "tle_line2": "2 31021  98.3471  99.0840 0268186 236.1155 121.4280 14.75277457734590"
      },
      "geometry": {
        "type": "Point",
        "coordinates": [
          -68.21307900994958,
          37.37905640565313
        ]
      }
    },
    {
      "type": "Feature",
      "properties": {
        "norad_id": 31022,
        "name": "FENGYUN 1C DEB",
        "group": "fengyun-1c-debris",
        "lat": 22.574370215386185,
        "lon": 62.45010153151805,
        "alt_km": 881.1555036302761,
        "timestamp": "2025-12-20T14:38:02.249837+00:00",
        "meta_object_name": "FENGYUN 1C DEB",
        "meta_object_id": "1999-025BDQ",
        "meta_epoch": "2025-12-17T21:59:38.515200",
        "meta_mean_motion": 13.90453194,
        "meta_eccentricity": 0.01101354,
        "meta_inclination": 99.5162,
        "meta_ra_of_asc_node": 235.6955,
        "meta_arg_of_pericenter": 108.0233,
        "meta_mean_anomaly": 253.2962,
        "meta_ephemeris_type": 0,
        "meta_classification_type": "U",
        "meta_norad_cat_id": 31022,
        "meta_element_set_no": 999,
        "meta_rev_at_epoch": 62080,
        "meta_bstar": 0.00038274949,
        "meta_mean_motion_dot": 4.54e-06,
        "meta_mean_motion_ddot": 0,
        "tle_line1": "1 31022U 99025BDQ 25351.91641800  .00000454  00000+0  38275-3 0  9998",
        "tle_line2": "2 31022  99.5162 235.6955 0110135 108.0233 253.2962 13.90453194620809"
      },
      "geometry": {
        "type": "Point",
        "coordinates": [
          62.45010153151805,
          22.574370215386185
        ]
      }
    },
    {
      "type": "Feature",
      "properties": {
        "norad_id": 31023,
        "name": "FENGYUN 1C DEB",
        "group": "fengyun-1c-debris",
        "lat": -13.368126247534757,
        "lon": -18.025968758982685,
        "alt_km": 925.295121326375,
        "timestamp": "2025-12-20T14:38:02.249847+00:00",
        "meta_object_name": "FENGYUN 1C DEB",
        "meta_object_id": "1999-025BDR",
        "meta_epoch": "2025-12-18T18:18:52.932096",
        "meta_mean_motion": 14.06692032,
        "meta_eccentricity": 0.00822833,
        "meta_inclination": 98.8146,
        "meta_ra_of_asc_node": 338.0616,
        "meta_arg_of_pericenter": 204.3521,
        "meta_mean_anomaly": 155.375,
        "meta_ephemeris_type": 0,
        "meta_classification_type": "U",
        "meta_norad_cat_id": 31023,
        "meta_element_set_no": 999,
        "meta_rev_at_epoch": 69586,
        "meta_bstar": 0.00018638058,
        "meta_mean_motion_dot": 2.76e-06,
        "meta_mean_motion_ddot": 0,
        "tle_line1": "1 31023U 99025BDR 25352.76311264  .00000276  00000+0  18638-3 0  9994",
        "tle_line2": "2 31023  98.8146 338.0616 0082283 204.3521 155.3750 14.06692032695867"
      },
      "geometry": {
        "type": "Point",
        "coordinates": [
          -18.025968758982685,
          -13.368126247534757
        ]
      }
    },
    {
      "type": "Feature",
      "properties": {
        "norad_id": 31024,
        "name": "FENGYUN 1C DEB",
        "group": "fengyun-1c-debris",
        "lat": 6.753295443766147,
        "lon": 89.2113886519216,
        "alt_km": 806.0616634117314,
        "timestamp": "2025-12-20T14:38:02.249879+00:00",
        "meta_object_name": "FENGYUN 1C DEB",
        "meta_object_id": "1999-025BDS",
        "meta_epoch": "2025-12-20T05:22:46.706880",
        "meta_mean_motion": 14.20867875,
        "meta_eccentricity": 0.00753755,
        "meta_inclination": 99.0428,
        "meta_ra_of_asc_node": 267.7364,
        "meta_arg_of_pericenter": 103.4844,
        "meta_mean_anomaly": 257.4745,
        "meta_ephemeris_type": 0,
        "meta_classification_type": "U",
        "meta_norad_cat_id": 31024,
        "meta_element_set_no": 999,
        "meta_rev_at_epoch": 96810,
        "meta_bstar": 0.0002141562,
        "meta_mean_motion_dot": 4.31e-06,
        "meta_mean_motion_ddot": 0,
        "tle_line1": "1 31024U 99025BDS 25354.22415170  .00000431  00000+0  21416-3 0  9990",
        "tle_line2": "2 31024  99.0428 267.7364 0075375 103.4844 257.4745 14.20867875968106"
      },
      "geometry": {
        "type": "Point",
        "coordinates": [
          89.2113886519216,
          6.753295443766147
        ]
      }
    }
  ]
}